STARLINK-35761          
1 66961U 25288C   26004.50003471  .00099101  00000+0  23539-2 0  9998
2 66961  43.0005  30.9613 0000681 242.1245  87.1530 15.40636079  5481
STARLINK-35874          
1 66962U 25288D   26004.42255886  .00084667  00000+0  14328-2 0  9996
2 66962  43.0003  31.1592 0001601 269.3455  90.7222 15.50591417  5403
STARLINK-36133          
1 66963U 25288E   26004.48663064  .00123596  00000+0  20781-2 0  9999
2 66963  42.9998  30.7801 0001137 264.9349  95.1381 15.50598016  5418
STARLINK-36104          
1 66964U 25288F   26003.39157045  .00186583  00000+0  31071-2 0  9995
2 66964  43.0002  37.1830 0001175 251.1223 108.9510 15.50614564  5246
STARLINK-36067          
1 66965U 25288G   26004.50003471 -.00233906  00000+0 -57363-2 0  9999
2 66965  43.0011  31.0512 0001360 266.1965  25.7551 15.40852128  5488
STARLINK-36139          
1 66966U 25288H   26003.39054143  .00006042  00000+0  10872-3 0  9990
2 66966  43.0008  37.1755 0001194 265.8729  94.1994 15.50583166  5249
STARLINK-36136          
1 66967U 25288J   26003.45463087  .00048386  00000+0  82795-3 0  9999
2 66967  43.0002  36.7963 0002957 279.5591  80.4935 15.50492784  5256
STARLINK-36152          
1 66968U 25288K   26004.42049166  .00107048  00000+0  18053-2 0  9992
2 66968  43.0006  31.1422 0001537 259.6852 100.3834 15.50584425  5403
STARLINK-36149          
1 66969U 25288L   26004.45195563  .00074747  00000+0  17793-2 0  9998
2 66969  43.0011  31.3838 0001404 274.8276  85.2420 15.40697873  5408
STARLINK-35703          
1 66970U 25288M   26004.50003471 -.02014382  00000+0 -42568-1 0  9992
2 66970  43.0004  30.6443 0001129 283.8667 174.8013 15.47735845  5484
STARLINK-35678          
1 66971U 25288N   26004.42015503  .00105747  00000+0  17821-2 0  9990
2 66971  43.0010  31.1407 0001726 273.5899  86.4764 15.50609557  5401
STARLINK-34846          
1 66972U 25288P   26004.50003471 -.01981976  00000+0 -44002-1 0  9990
2 66972  43.0008  30.6894 0001570 282.8782 158.2641 15.46266839  5481
