CCSDS_OMM_VERS = 2.0
CREATION_DATE  = 
ORIGINATOR     = 

OBJECT_NAME    = STARLINK-35761
OBJECT_ID      = 2025-288C
CENTER_NAME    = EARTH
REF_FRAME      = TEME
TIME_SYSTEM    = UTC
MEAN_ELEMENT_THEORY = SGP/SGP4

EPOCH          = 2026-01-04T12:00:02.998944
MEAN_MOTION    = 15.40636079
ECCENTRICITY   = .0000681
INCLINATION    = 43.0005
RA_OF_ASC_NODE = 30.9613
ARG_OF_PERICENTER = 242.1245
MEAN_ANOMALY   = 87.1530

EPHEMERIS_TYPE = 0
CLASSIFICATION_TYPE = U
NORAD_CAT_ID   = 66961
ELEMENT_SET_NO = 999
REV_AT_EPOCH   = 548
BSTAR          = .23539E-2
MEAN_MOTION_DOT = .99101E-3
MEAN_MOTION_DDOT = 0

CCSDS_OMM_VERS = 2.0
CREATION_DATE  = 
ORIGINATOR     = 

OBJECT_NAME    = STARLINK-35874
OBJECT_ID      = 2025-288D
CENTER_NAME    = EARTH
REF_FRAME      = TEME
TIME_SYSTEM    = UTC
MEAN_ELEMENT_THEORY = SGP/SGP4

EPOCH          = 2026-01-04T10:08:29.085504
MEAN_MOTION    = 15.50591417
ECCENTRICITY   = .0001601
INCLINATION    = 43.0003
RA_OF_ASC_NODE = 31.1592
ARG_OF_PERICENTER = 269.3455
MEAN_ANOMALY   = 90.7222

EPHEMERIS_TYPE = 0
CLASSIFICATION_TYPE = U
NORAD_CAT_ID   = 66962
ELEMENT_SET_NO = 999
REV_AT_EPOCH   = 540
BSTAR          = .14328E-2
MEAN_MOTION_DOT = .84667E-3
MEAN_MOTION_DDOT = 0

CCSDS_OMM_VERS = 2.0
CREATION_DATE  = 
ORIGINATOR     = 

OBJECT_NAME    = STARLINK-36133
OBJECT_ID      = 2025-288E
CENTER_NAME    = EARTH
REF_FRAME      = TEME
TIME_SYSTEM    = UTC
MEAN_ELEMENT_THEORY = SGP/SGP4

EPOCH          = 2026-01-04T11:40:44.887296
MEAN_MOTION    = 15.50598016
ECCENTRICITY   = .0001137
INCLINATION    = 42.9998
RA_OF_ASC_NODE = 30.7801
ARG_OF_PERICENTER = 264.9349
MEAN_ANOMALY   = 95.1381

EPHEMERIS_TYPE = 0
CLASSIFICATION_TYPE = U
NORAD_CAT_ID   = 66963
ELEMENT_SET_NO = 999
REV_AT_EPOCH   = 541
BSTAR          = .20781E-2
MEAN_MOTION_DOT = .123596E-2
MEAN_MOTION_DDOT = 0

CCSDS_OMM_VERS = 2.0
CREATION_DATE  = 
ORIGINATOR     = 

OBJECT_NAME    = STARLINK-36104
OBJECT_ID      = 2025-288F
CENTER_NAME    = EARTH
REF_FRAME      = TEME
TIME_SYSTEM    = UTC
MEAN_ELEMENT_THEORY = SGP/SGP4

EPOCH          = 2026-01-03T09:23:51.686880
MEAN_MOTION    = 15.50614564
ECCENTRICITY   = .00011758
INCLINATION    = 43.0002
RA_OF_ASC_NODE = 37.1830
ARG_OF_PERICENTER = 251.1223
MEAN_ANOMALY   = 108.9510

EPHEMERIS_TYPE = 0
CLASSIFICATION_TYPE = U
NORAD_CAT_ID   = 66964
ELEMENT_SET_NO = 999
REV_AT_EPOCH   = 524
BSTAR          = .31070829E-2
MEAN_MOTION_DOT = .186583E-2
MEAN_MOTION_DDOT = 0

CCSDS_OMM_VERS = 2.0
CREATION_DATE  = 
ORIGINATOR     = 

OBJECT_NAME    = STARLINK-36067
OBJECT_ID      = 2025-288G
CENTER_NAME    = EARTH
REF_FRAME      = TEME
TIME_SYSTEM    = UTC
MEAN_ELEMENT_THEORY = SGP/SGP4

EPOCH          = 2026-01-04T12:00:02.998944
MEAN_MOTION    = 15.40852128
ECCENTRICITY   = .000136
INCLINATION    = 43.0011
RA_OF_ASC_NODE = 31.0512
ARG_OF_PERICENTER = 266.1965
MEAN_ANOMALY   = 25.7551

EPHEMERIS_TYPE = 0
CLASSIFICATION_TYPE = U
NORAD_CAT_ID   = 66965
ELEMENT_SET_NO = 999
REV_AT_EPOCH   = 548
BSTAR          = -.57363E-2
MEAN_MOTION_DOT = -.233906E-2
MEAN_MOTION_DDOT = 0

CCSDS_OMM_VERS = 2.0
CREATION_DATE  = 
ORIGINATOR     = 

OBJECT_NAME    = STARLINK-36139
OBJECT_ID      = 2025-288H
CENTER_NAME    = EARTH
REF_FRAME      = TEME
TIME_SYSTEM    = UTC
MEAN_ELEMENT_THEORY = SGP/SGP4

EPOCH          = 2026-01-03T09:22:22.779552
MEAN_MOTION    = 15.50583166
ECCENTRICITY   = .00011941
INCLINATION    = 43.0008
RA_OF_ASC_NODE = 37.1755
ARG_OF_PERICENTER = 265.8729
MEAN_ANOMALY   = 94.1994

EPHEMERIS_TYPE = 0
CLASSIFICATION_TYPE = U
NORAD_CAT_ID   = 66966
ELEMENT_SET_NO = 999
REV_AT_EPOCH   = 524
BSTAR          = .10872199E-3
MEAN_MOTION_DOT = .6042E-4
MEAN_MOTION_DDOT = 0

CCSDS_OMM_VERS = 2.0
CREATION_DATE  = 
ORIGINATOR     = 

OBJECT_NAME    = STARLINK-36136
OBJECT_ID      = 2025-288J
CENTER_NAME    = EARTH
REF_FRAME      = TEME
TIME_SYSTEM    = UTC
MEAN_ELEMENT_THEORY = SGP/SGP4

EPOCH          = 2026-01-03T10:54:40.107168
MEAN_MOTION    = 15.50492784
ECCENTRICITY   = .00029574
INCLINATION    = 43.0002
RA_OF_ASC_NODE = 36.7963
ARG_OF_PERICENTER = 279.5591
MEAN_ANOMALY   = 80.4935

EPHEMERIS_TYPE = 0
CLASSIFICATION_TYPE = U
NORAD_CAT_ID   = 66967
ELEMENT_SET_NO = 999
REV_AT_EPOCH   = 525
BSTAR          = .82795197E-3
MEAN_MOTION_DOT = .48386E-3
MEAN_MOTION_DDOT = 0

CCSDS_OMM_VERS = 2.0
CREATION_DATE  = 
ORIGINATOR     = 

OBJECT_NAME    = STARLINK-36152
OBJECT_ID      = 2025-288K
CENTER_NAME    = EARTH
REF_FRAME      = TEME
TIME_SYSTEM    = UTC
MEAN_ELEMENT_THEORY = SGP/SGP4

EPOCH          = 2026-01-04T10:05:30.479424
MEAN_MOTION    = 15.50584425
ECCENTRICITY   = .0001537
INCLINATION    = 43.0006
RA_OF_ASC_NODE = 31.1422
ARG_OF_PERICENTER = 259.6852
MEAN_ANOMALY   = 100.3834

EPHEMERIS_TYPE = 0
CLASSIFICATION_TYPE = U
NORAD_CAT_ID   = 66968
ELEMENT_SET_NO = 999
REV_AT_EPOCH   = 540
BSTAR          = .18053E-2
MEAN_MOTION_DOT = .107048E-2
MEAN_MOTION_DDOT = 0

CCSDS_OMM_VERS = 2.0
CREATION_DATE  = 
ORIGINATOR     = 

OBJECT_NAME    = STARLINK-36149
OBJECT_ID      = 2025-288L
CENTER_NAME    = EARTH
REF_FRAME      = TEME
TIME_SYSTEM    = UTC
MEAN_ELEMENT_THEORY = SGP/SGP4

EPOCH          = 2026-01-04T10:50:48.966432
MEAN_MOTION    = 15.40697873
ECCENTRICITY   = .0001404
INCLINATION    = 43.0011
RA_OF_ASC_NODE = 31.3838
ARG_OF_PERICENTER = 274.8276
MEAN_ANOMALY   = 85.2420

EPHEMERIS_TYPE = 0
CLASSIFICATION_TYPE = U
NORAD_CAT_ID   = 66969
ELEMENT_SET_NO = 999
REV_AT_EPOCH   = 540
BSTAR          = .17793E-2
MEAN_MOTION_DOT = .74747E-3
MEAN_MOTION_DDOT = 0

CCSDS_OMM_VERS = 2.0
CREATION_DATE  = 
ORIGINATOR     = 

OBJECT_NAME    = STARLINK-35703
OBJECT_ID      = 2025-288M
CENTER_NAME    = EARTH
REF_FRAME      = TEME
TIME_SYSTEM    = UTC
MEAN_ELEMENT_THEORY = SGP/SGP4

EPOCH          = 2026-01-04T12:00:02.998944
MEAN_MOTION    = 15.47735845
ECCENTRICITY   = .0001129
INCLINATION    = 43.0004
RA_OF_ASC_NODE = 30.6443
ARG_OF_PERICENTER = 283.8667
MEAN_ANOMALY   = 174.8013

EPHEMERIS_TYPE = 0
CLASSIFICATION_TYPE = U
NORAD_CAT_ID   = 66970
ELEMENT_SET_NO = 999
REV_AT_EPOCH   = 548
BSTAR          = -.42568E-1
MEAN_MOTION_DOT = -.2014382E-1
MEAN_MOTION_DDOT = 0

CCSDS_OMM_VERS = 2.0
CREATION_DATE  = 
ORIGINATOR     = 

OBJECT_NAME    = STARLINK-35678
OBJECT_ID      = 2025-288N
CENTER_NAME    = EARTH
REF_FRAME      = TEME
TIME_SYSTEM    = UTC
MEAN_ELEMENT_THEORY = SGP/SGP4

EPOCH          = 2026-01-04T10:05:01.394592
MEAN_MOTION    = 15.50609557
ECCENTRICITY   = .0001726
INCLINATION    = 43.0010
RA_OF_ASC_NODE = 31.1407
ARG_OF_PERICENTER = 273.5899
MEAN_ANOMALY   = 86.4764

EPHEMERIS_TYPE = 0
CLASSIFICATION_TYPE = U
NORAD_CAT_ID   = 66971
ELEMENT_SET_NO = 999
REV_AT_EPOCH   = 540
BSTAR          = .17821E-2
MEAN_MOTION_DOT = .105747E-2
MEAN_MOTION_DDOT = 0

CCSDS_OMM_VERS = 2.0
CREATION_DATE  = 
ORIGINATOR     = 

OBJECT_NAME    = STARLINK-34846
OBJECT_ID      = 2025-288P
CENTER_NAME    = EARTH
REF_FRAME      = TEME
TIME_SYSTEM    = UTC
MEAN_ELEMENT_THEORY = SGP/SGP4

EPOCH          = 2026-01-04T12:00:02.998944
MEAN_MOTION    = 15.46266839
ECCENTRICITY   = .000157
INCLINATION    = 43.0008
RA_OF_ASC_NODE = 30.6894
ARG_OF_PERICENTER = 282.8782
MEAN_ANOMALY   = 158.2641

EPHEMERIS_TYPE = 0
CLASSIFICATION_TYPE = U
NORAD_CAT_ID   = 66972
ELEMENT_SET_NO = 999
REV_AT_EPOCH   = 548
BSTAR          = -.44002E-1
MEAN_MOTION_DOT = -.1981976E-1
MEAN_MOTION_DDOT = 0

